NORAD_CAT_ID,OBJECT_NAME,OBJECT_TYPE,EPOCH,MEAN_MOTION,ECCENTRICITY,INCLINATION,RA_OF_ASC_NODE,ARG_OF_PERICENTER,MEAN_ANOMALY,BSTAR,MEAN_MOTION_DOT,MEAN_MOTION_DDOT,TLE_LINE0,TLE_LINE1,TLE_LINE2,SEMIMAJOR_AXIS,PERIOD,APOGEE,PERIGEE,DECAYED
55309.0,STARLINK-5315,PAYLOAD,2024-03-19 21:57:52,14.98337377,0.0002846,70.0021,19.3992,272.1872,87.8961,7.5597e-05,8.09e-06,0.0,0 STARLINK-5315,1 55309U 23010AS  24079.91519569  .00000809  00000-0  75597-4 0  9999,2 55309  70.0021  19.3992 0002846 272.1872  87.8961 14.98337377 65637,6950.17,96.107,574.013,570.057,0.0
55309.0,STARLINK-5315,PAYLOAD,2024-03-20 05:58:32,14.98343498,0.0002752,70.0023,18.5582,271.2599,88.8244,0.00014307,1.615e-05,0.0,0 STARLINK-5315,1 55309U 23010AS  24080.24898791  .00001615  00000-0  14307-3 0  9991,2 55309  70.0023  18.5582 0002752 271.2599  88.8244 14.98343498 65688,6950.151,96.106,573.929,570.103,0.0
55309.0,STARLINK-5315,PAYLOAD,2024-03-20 20:23:46,14.98321838,0.0002458,70.0047,17.047,262.2062,97.8818,1.2576e-05,5.7e-07,0.0,0 STARLINK-5315,1 55309U 23010AS  24080.84984438  .00000057  00000-0  12576-4 0  9997,2 55309  70.0047  17.0470 0002458 262.2062  97.8818 14.98321838 65773,6950.218,96.108,573.791,570.375,0.0
55309.0,STARLINK-5315,PAYLOAD,2024-03-20 21:59:54,14.98321612,0.0002627,70.0045,16.8795,261.0054,99.0807,-1.4362e-05,-2.64e-06,0.0,0 STARLINK-5315,1 55309U 23010AS  24080.91660536 -.00000264  00000-0 -14362-4 0  9992,2 55309  70.0045  16.8795 0002627 261.0054  99.0807 14.98321612 66104,6950.219,96.108,573.91,570.258,0.0
55309.0,STARLINK-5315,PAYLOAD,2024-03-21 12:25:07,14.98329015,0.0002753,70.0021,15.3605,271.6971,88.3873,-6.4894e-05,-8.67e-06,0.0,0 STARLINK-5315,1 55309U 23010AS  24081.51744324 -.00000867  00000-0 -64894-4 0  9991,2 55309  70.0021  15.3605 0002753 271.6971  88.3873 14.98329015 66195,6950.196,96.107,573.974,570.148,0.0
55309.0,STARLINK-5315,PAYLOAD,2024-03-21 20:25:47,14.98334117,0.0002938,70.0015,14.5182,269.259,90.8233,-8.0667e-05,-1.055e-05,0.0,0 STARLINK-5315,1 55309U 23010AS  24081.85123966 -.00001055  00000-0 -80667-4 0  9997,2 55309  70.0015  14.5182 0002938 269.2590  90.8233 14.98334117 65921,6950.18,96.107,574.087,570.003,0.0
55309.0,STARLINK-5315,PAYLOAD,2024-03-21 22:01:55,14.98334313,0.0002921,70.0016,14.3498,269.17,90.9124,-7.2373e-05,-9.56e-06,0.0,0 STARLINK-5315,1 55309U 23010AS  24081.91799914 -.00000956  00000-0 -72373-4 0  9990,2 55309  70.0016  14.3498 0002921 269.1700  90.9124 14.98334313 66259,6950.18,96.107,574.075,570.014,0.0
55309.0,STARLINK-5315,PAYLOAD,2024-03-22 04:26:26,14.98346026,0.0002761,70.0019,13.6777,256.3953,103.6899,3.2605e-05,2.96e-06,0.0,0 STARLINK-5315,1 55309U 23010AS  24082.18502667  .00000296  00000-0  32605-4 0  9996,2 55309  70.0019  13.6777 0002761 256.3953 103.6899 14.98346026 65977,6950.143,96.106,573.927,570.089,0.0
55309.0,STARLINK-5315,PAYLOAD,2024-03-22 20:27:48,14.98316771,0.0002428,70.005,11.9945,267.1645,92.9236,0.00013303,1.494e-05,0.0,0 STARLINK-5315,1 55309U 23010AS  24082.85264245  .00001494  00000-0  13303-3 0  9991,2 55309  70.0050  11.9945 0002428 267.1645  92.9236 14.98316771 66079,6950.234,96.108,573.786,570.411,0.0
55309.0,STARLINK-5315,PAYLOAD,2024-03-22 22:03:56,14.98319714,0.0002801,70.0021,11.8267,272.8599,87.224,6.1746e-08,-9.2e-07,0.0,0 STARLINK-5315,1 55309U 23010AS  24082.91940568 -.00000092  00000-0  61746-7 0  9999,2 55309  70.0021  11.8267 0002801 272.8599  87.2240 14.98319714 66408,6950.225,96.108,574.036,570.143,0.0
55309.0,STARLINK-5315,PAYLOAD,2024-03-23 20:29:49,14.98326453,0.0003056,70.0009,9.4674,272.3752,87.7057,3.7485e-05,3.54e-06,0.0,0 STARLINK-5315,1 55309U 23010AS  24083.85404192  .00000354  00000-0  37485-4 0  9991,2 55309  70.0009   9.4674 0003056 272.3752  87.7057 14.98326453 66227,6950.204,96.107,574.193,569.945,0.0
55309.0,STARLINK-5315,PAYLOAD,2024-03-23 22:05:57,14.98327098,0.0003042,70.001,9.2993,272.0272,88.0538,4.3467e-05,4.26e-06,0.0,0 STARLINK-5315,1 55309U 23010AS  24083.92080144  .00000426  00000-0  43467-4 0  9993,2 55309  70.0010   9.2993 0003042 272.0272  88.0538 14.98327098 66550,6950.202,96.107,574.181,569.953,0.0
55309.0,STARLINK-5315,PAYLOAD,2024-03-24 04:30:27,14.98352427,0.0002915,70.0015,8.6294,261.273,98.8099,9.0417e-05,9.87e-06,0.0,0 STARLINK-5315,1 55309U 23010AS  24084.18782205  .00000987  00000-0  90417-4 0  9998,2 55309  70.0015   8.6294 0002915 261.2730  98.8099 14.98352427 66273,6950.124,96.106,574.014,569.963,0.0
55309.0,STARLINK-5315,PAYLOAD,2024-03-24 20:31:49,14.98323156,0.0002244,70.0051,6.9495,257.7122,102.3786,0.00012957,1.453e-05,0.0,0 STARLINK-5315,1 55309U 23010AS  24084.85543956  .00001453  00000-0  12957-3 0  9991,2 55309  70.0051   6.9495 0002244 257.7122 102.3786 14.98323156 66379,6950.214,96.107,573.639,570.519,0.0
55309.0,STARLINK-5315,PAYLOAD,2024-03-24 22:07:57,14.98327827,0.0002712,70.0015,6.7757,269.9971,90.0877,7.4848e-05,8e-06,0.0,0 STARLINK-5315,1 55309U 23010AS  24084.92219806  .00000800  00000-0  74848-4 0  9996,2 55309  70.0015   6.7757 0002712 269.9971  90.0877 14.98327827 66705,6950.2,96.107,573.95,570.18,0.0
55309.0,STARLINK-5315,PAYLOAD,2024-03-25 04:32:29,14.98337291,0.0002865,70.0013,6.102,275.3304,84.7528,0.0001619,1.84e-05,0.0,0 STARLINK-5315,1 55309U 23010AS  24085.18922902  .00001840  00000-0  16190-3 0  9993,2 55309  70.0013   6.1020 0002865 275.3304  84.7528 14.98337291 66428,6950.17,96.107,574.027,570.044,0.0
55309.0,STARLINK-5315,PAYLOAD,2024-03-25 12:33:11,14.9831936,0.0002545,70.0024,5.2627,274.8315,85.2553,-0.00010465,-1.341e-05,0.0,0 STARLINK-5315,1 55309U 23010AS  24085.52304911 -.00001341  00000-0 -10465-3 0  9992,2 55309  70.0024   5.2627 0002545 274.8315  85.2553 14.98319360 66470,6950.226,96.108,573.86,570.322,0.0
55309.0,STARLINK-5315,PAYLOAD,2024-03-25 20:33:52,14.9831666,0.0002812,70.0014,4.4196,267.4661,92.6176,-0.00033781,-4.12e-05,0.0,0 STARLINK-5315,1 55309U 23010AS  24085.85685986 -.00004120  00000-0 -33781-3 0  9996,2 55309  70.0014   4.4196 0002812 267.4661  92.6176 14.98316660 66529,6950.234,96.108,574.054,570.145,0.0
55309.0,STARLINK-5315,PAYLOAD,2024-03-25 22:10:00,14.98317732,0.0002856,70.0012,4.251,267.858,92.2252,-0.00033782,-4.12e-05,0.0,0 STARLINK-5315,1 55309U 23010AS  24085.92361952 -.00004120  00000-0 -33782-3 0  9999,2 55309  70.0012   4.2510 0002856 267.8580  92.2252 14.98317732 66855,6950.231,96.108,574.081,570.111,0.0
55309.0,STARLINK-5315,PAYLOAD,2024-03-26 04:34:32,14.98319134,0.0002678,70.0017,3.5777,266.7466,93.3386,-0.00027141,-3.329e-05,0.0,0 STARLINK-5315,1 55309U 23010AS  24086.19065920 -.00003329  00000-0 -27141-3 0  9997,2 55309  70.0017   3.5777 0002678 266.7466  93.3386 14.98319134 66892,6950.226,96.108,573.953,570.23,0.0
55309.0,STARLINK-5315,PAYLOAD,2024-03-26 20:35:52,14.98336406,0.0002742,70.0002,1.8953,259.3518,100.7333,7.3424e-05,7.83e-06,0.0,0 STARLINK-5315,1 55309U 23010AS  24086.85824223  .00000783  00000-0  73424-4 0  9994,2 55309  70.0002   1.8953 0002742 259.3518 100.7333 14.98336406 66673,6950.173,96.107,573.944,570.132,0.0
55309.0,STARLINK-5315,PAYLOAD,2024-03-26 22:12:00,14.98336189,0.0002923,70.0003,1.7272,265.2786,94.804,7.4956e-05,8.02e-06,0.0,0 STARLINK-5315,1 55309U 23010AS  24086.92500250  .00000802  00000-0  74956-4 0  9996,2 55309  70.0003   1.7272 0002923 265.2786  94.8040 14.98336189 67005,6950.174,96.107,574.07,570.007,0.0
55309.0,STARLINK-5315,PAYLOAD,2024-03-27 11:01:04,14.9835709,0.0002471,70.0021,0.3812,275.5888,84.499,-0.00040957,-4.98e-05,0.0,0 STARLINK-5315,1 55309U 23010AS  24087.45908003 -.00004980  00000-0 -40957-3 0  9999,2 55309  70.0021   0.3812 0002471 275.5888  84.4990 14.98357090 67086,6950.109,96.105,573.691,570.257,0.0
55309.0,STARLINK-5315,PAYLOAD,2024-03-27 20:37:53,14.98322421,0.0002745,70.0012,359.3699,270.5496,89.5349,0.00026143,3.027e-05,0.0,0 STARLINK-5315,1 55309U 23010AS  24087.85964681  .00003027  00000-0  26143-3 0  9997,2 55309  70.0012 359.3699 0002745 270.5496  89.5349 14.98322421 66825,6950.216,96.107,573.989,570.173,0.0
55309.0,STARLINK-5315,PAYLOAD,2024-03-27 22:14:01,14.98323611,0.0002689,70.0013,359.2014,270.6733,89.4118,0.00024463,2.827e-05,0.0,0 STARLINK-5315,1 55309U 23010AS  24087.92640687  .00002827  00000-0  24463-3 0  9992,2 55309  70.0013 359.2014 0002689 270.6733  89.4118 14.98323611 67150,6950.213,96.107,573.947,570.209,0.0
55309.0,STARLINK-5315,PAYLOAD,2024-03-28 11:03:06,14.98329925,0.0002472,70.0019,357.8538,274.6105,85.4772,0.0001725,1.966e-05,0.0,0 STARLINK-5315,1 55309U 23010AS  24088.46048631  .00001966  00000-0  17250-3 0  9992,2 55309  70.0019 357.8538 0002472 274.6105  85.4772 14.98329925 67233,6950.193,96.107,573.776,570.34,0.0
55309.0,STARLINK-5315,PAYLOAD,2024-03-28 22:16:02,14.98343521,0.0002354,70.0025,356.6762,254.648,105.4419,-0.0001167,-1.485e-05,0.0,0 STARLINK-5315,1 55309U 23010AS  24088.92780359 -.00001485  00000-0 -11670-3 0  9991,2 55309  70.0025 356.6762 0002354 254.6480 105.4419 14.98343521 67306,6950.151,96.106,573.652,570.38,0.0
55309.0,STARLINK-5315,PAYLOAD,2024-03-29 04:40:34,14.98342577,0.0002515,70.0009,356.0032,243.5244,116.5657,2.3131e-05,1.83e-06,0.0,0 STARLINK-5315,1 55309U 23010AS  24089.19483798  .00000183  00000-0  23131-4 0  9996,2 55309  70.0009 356.0032 0002515 243.5244 116.5657 14.98342577 67022,6950.154,96.106,573.767,570.271,0.0
55309.0,STARLINK-5315,PAYLOAD,2024-03-29 11:05:07,14.98334573,0.0002227,70.0032,355.3274,279.8337,80.2571,-6.9343e-05,-9.2e-06,0.0,0 STARLINK-5315,1 55309U 23010AS  24089.46188720 -.00000920  00000-0 -69343-4 0  9999,2 55309  70.0032 355.3274 0002227 279.8337  80.2571 14.98334573 67066,6950.179,96.107,573.592,570.496,0.0
55309.0,STARLINK-5315,PAYLOAD,2024-03-29 22:18:03,14.98325961,0.00028,70.0025,354.1491,273.8052,86.2786,8.5154e-05,9.23e-06,0.0,0 STARLINK-5315,1 55309U 23010AS  24089.92920540  .00000923  00000-0  85154-4 0  9993,2 55309  70.0025 354.1491 0002800 273.8052  86.2786 14.98325961 67459,6950.205,96.107,574.016,570.124,0.0
